,name,address,lat,long
0,커피니 상명대점,서울 종로구 홍지문2길 2,37.6010324031386,126.956657274744
1,레이지,"서울 종로구 세검정로 227-4 1,2층",37.6006108239906,126.957886078818
2,그라운드62,서울 종로구 평창길 62,37.6083244486376,126.963211549338
3,산모퉁이,서울 종로구 백석동길 153,37.5954257258216,126.967975647987
4,무네,서울 종로구 자하문로 258,37.5972963494962,126.963575373735
5,도이창카페,서울 종로구 창의문로11길 10 1층,37.5941582875688,126.962713396458
6,부빙,서울 종로구 창의문로 136,37.5927641015229,126.965404772731
7,컴포즈커피 포방터시장점,서울 서대문구 홍은중앙로 107 1층,37.6001183378027,126.948554280515
8,가고싶은카페오름,서울 종로구 세검정로7가길 16,37.6022682864348,126.959168767977
9,스타벅스 종로평창점,서울 종로구 평창12길 3,37.606177671919,126.96722438064
10,카페인코나,서울 종로구 진흥로 450,37.6072692065706,126.958069417046
11,카페코스타,서울 종로구 홍지문2길 16 1층,37.6016620213663,126.9557028345
12,설빙 서울청하고려인삼점,서울 종로구 자하문로 280 청하빌딩,37.5986493991976,126.961682607755
13,몽유도원도이창,서울 종로구 창의문로11길 10,37.5941582875688,126.962713396458
14,아마스빈 상명대점,서울 종로구 홍지문2길 9,37.6011628076331,126.95576983036
15,동산고와,서울 종로구 비봉2길 6,37.6104254512232,126.956789091289
16,클럽에스프레소,서울 종로구 창의문로 132,37.5926888553108,126.965978655814
17,테라스461,서울 종로구 홍지문길 7 1층,37.6001506635689,126.956820966581
18,이디야커피 상명대점,서울 종로구 홍지문2길 6,37.6012372541669,126.956320032453
19,다락방,서울 종로구 진흥로 464,37.6065722484277,126.959495295665
20,카페가가,서울 서대문구 간호대로 31,37.5968950283819,126.947498874689
21,럼버잭,서울 종로구 창의문로 151,37.5932637781326,126.963563411924
22,샌드앤닭,서울 종로구 홍지문2길 2,37.6010324031386,126.956657274744
23,러빈커피,서울 서대문구 홍은중앙로 132 1층,37.6020136402648,126.949128707153
24,카페곳,서울 서대문구 세검정로 89 4층,37.5957672273102,126.948658960687
25,구기동에봄,서울 종로구 진흥로 466,37.6064810252098,126.959632604891
26,제이스크릭,서울 종로구 세검정로6길 78,37.6008164151927,126.962660020876
27,카페작가,서울 서대문구 간호대로2길 16 1층,37.5972751480088,126.949125252357
28,오렌지나무,서울 종로구 진흥로 455 2층,37.6071803913242,126.958901300546
29,블루마운틴,서울 종로구 진흥로 443,37.6079304642039,126.957876402784
30,카페비,서울 종로구 진흥로 474,37.605982628943,126.960255748523
31,보다더카페,서울 서대문구 세검정로 57 2층,37.5930175676541,126.947198707931
32,커피볶는김여사 3호점,서울 서대문구 포방터길 31,37.5981827788975,126.94885308955
33,커피어반게이트 홍은점,서울 서대문구 홍은중앙로 91,37.5992202327237,126.947536648274
34,자문밖커피문,서울 종로구 자하문로 269 1층,37.5977661011895,126.962346971703
35,안다미로,서울 종로구 홍지문2길 20 자하관 지하1층,37.604108905882,126.955159496571
36,비지블루베리,서울 서대문구 포방터길 23 1층,37.597812582392,126.948693225152
37,부암커피,서울 종로구 자하문로 273-1 1층,37.5978062985163,126.961826851706
38,제비꽃다방,서울 종로구 창의문로 146,37.5929450144572,126.96447382422
39,카페멈무이,서울 서대문구 간호대로 35 지하 1층,37.596946753315,126.947314716333
40,멜팅팟,서울 종로구 평창문화로 45,37.6054955335007,126.966268743985
41,쥬씨,서울 종로구 홍지문2길 7,37.6009850135082,126.9559340237
42,무아타,서울 종로구 홍지문2길 27,37.6017644832787,126.954102756682
43,비지블루베리,서울 서대문구 포방터길 23 1층,37.597812582392,126.948693225152
44,소마커피,서울 종로구 창의문로 155,37.5936728088526,126.963500142709
45,데미타스,서울 종로구 창의문로 133 2층,37.5923677514777,126.965700824206
46,모터라이프,서울 종로구 평창11길 45,37.6093944510425,126.965868212213
47,이음티하우스,서울 종로구 창의문로 137 3층,37.5925294497864,126.965290859263
48,카페드림 상명대학교중앙교수회관점,서울 종로구 홍지문2길 20 상명대학교 중앙교수회관 1층,37.604108905882,126.955159496571
49,부엌이있는카페,서울 종로구 진흥로 473,37.6062935544391,126.9605059796
50,플리즈커피 상명대점,서울 종로구 홍지문2길 11,37.6013255408368,126.955568048574
51,뮤지가든라이브,서울 종로구 진흥로 439,37.6081797608481,126.957604794266
52,간식창고,서울 서대문구 세검정로1길 85,37.5941903384771,126.945698234795
53,라플레르수,서울 종로구 자하문로 236,37.5952159705489,126.963901481335
54,제이카페,서울 종로구 진흥로 445 비동 2층,37.6077211580755,126.958111972785
55,커피볶는김여사 본점,서울 서대문구 세검정로1길 107,37.5950870086053,126.946098655761
56,울루벨루코리아,서울 종로구 세검정로6길 98,37.6013816516032,126.961954574852
57,커피식스쥬스식스 평창동점,서울 종로구 진흥로 497,37.6043097277411,126.961515156218
58,아로이커피 홍은벽산점,서울 서대문구 홍은중앙로 33-1 1층,37.5944777931612,126.946373344124
59,하나미즈키 커피하우스,서울 종로구 평창12길 8-11 1층,37.6068235645264,126.968112552501
60,라스트로스터,서울 서대문구 홍은중앙로 150,37.6035464026537,126.949543050388
61,성곽마을삼층까페,서울 종로구 백석동길 12-1,37.5930791609814,126.966278651706
62,헬렌,서울 종로구 진흥로 470,37.6062315787047,126.96000759802
63,앤팩토리카페,서울 종로구 진흥로 469-6 1층,37.6068422120726,126.960640571661
64,쥬씨 홍은동점,서울 서대문구 홍은중앙로 94,37.599132829552,126.947927612343
65,G브릭커피,서울 서대문구 홍은중앙로 110-2,37.6002382504518,126.9489480507
66,인테리어카페기억,서울 서대문구 세검정로 92,37.595715241328,126.949077736864
67,써니디자인까페,서울 서대문구 포방터길 57 1층,37.5992599453842,126.949135224905
68,에이커피,서울 종로구 백석동1가길 19,37.5940898710492,126.967157440947
69,슬로우가든,서울 종로구 평창8길 3,37.6045448453703,126.966081861578
70,카페루,서울 서대문구 포방터길 27,37.5979581207402,126.948758350135
71,커피디지,서울 서대문구 세검정로 89,37.5957672273102,126.948658960687
72,창의문뜰,서울 종로구 백석동길 6-5,37.592794495541,126.9661315813
73,카페미고,서울 종로구 평창문화로 56,37.6056846338263,126.967490733112
74,제이앤드제이,서울 서대문구 세검정로 99,37.5963746412486,126.948995191913
75,애프터유,서울 종로구 창의문로5길 10-1,37.5919446018274,126.963745447289
76,컵스20,서울 서대문구 세검정로 93,37.596051630922,126.948775736848
77,그냥괜찮아,서울 종로구 백석동길 61,37.5941864801436,126.967895218173
78,아트포라이프,서울 종로구 백석동길 97,37.5949566464267,126.969591233311
79,하이드미플리즈,서울 서대문구 통일로39나길 5 1층,37.588467277615,126.943106521675
80,컵스20,서울 서대문구 세검정로 89 1층,37.5957672273102,126.948658960687
81,광화문연가,서울 종로구 평창11길 3-3 지하1층,37.6057364631553,126.966602947718
82,봄날,서울 종로구 평창11길 3-4,37.6058250891561,126.966492149951
83,카페가가,서울 서대문구 세검정로 67,37.5938194933327,126.947700096277
84,경진상사,서울 서대문구 포방터2길 13-1,37.5988097661436,126.949874302571
85,커피보굼,서울 종로구 비봉5길 20,37.6141913344539,126.953982197508
86,더숲 초소책방,서울 종로구 인왕산로 172,37.5859537047415,126.964277654295
87,더피아노,서울 종로구 평창6길 71,37.6172671936562,126.974800586309
88,소빈하우스,서울 서대문구 포방터2길 67-11,37.5966249488387,126.951372291014
89,스타벅스 홍제역점,서울 서대문구 통일로 451,37.5886701766902,126.943849906806
90,커피생각날때,서울 종로구 자하문로 231,37.594702820251,126.963202630054
91,커피생각날때,서울 종로구 자하문로 231,37.594702820251,126.963202630054
92,루루홀릭,서울 서대문구 세검정로1길 120-1 1층,37.5956160084883,126.946357467166
93,이엔갤러리,서울 종로구 평창길 224,37.6131791134378,126.970783359811
94,루네쌍스다방,서울 종로구 자하문로 231 서울미술관 3층,37.594702820251,126.963202630054
95,인&아웃커피,서울 서대문구 세검정로 51-1,37.5927541518525,126.946873358315
96,재즈카페,서울 종로구 평창11길 7,37.6063566772826,126.96650663405
97,아키비스트,서울 종로구 효자로13길 52,37.5822185381407,126.972678662665
98,키미아트,서울 종로구 평창30길 47,37.6130075709554,126.974292804383
99,아리디,서울 종로구 백석동길 81 1층,37.5944632055821,126.969022327981
100,37.5 녹번점,서울 은평구 통일로 636 미드스퀘어 8층,37.603517115574,126.935311316206
101,카페모뜨,서울 종로구 평창30길 24 가나아트센타 서울 경매 3층,37.6118033926539,126.975102339057
102,카페테리아 환기미술관,서울 종로구 자하문로40길 63,37.5940877740173,126.966113670715
103,셀렉토커피 홍제점,서울 서대문구 세무서길 86,37.5915463396948,126.947202578054
104,이디야커피 홍은사거리점,서울 서대문구 통일로 510,37.594570187466,126.941167410528
105,청강,서울 종로구 평창11길 3-3,37.6057364631553,126.966602947718
106,아더커피,서울 종로구 비봉2길 70,37.6146564078426,126.960662050804
107,인왕산 대충유원지,서울 종로구 필운대로 46 무목적빌딩 4층,37.5800929492628,126.968821786523
108,하이버,서울 종로구 옥인6길 2,37.5819231647547,126.964156177561
109,에밀즈,서울 종로구 창의문로 143-3,37.5925503385552,126.964635816812
110,산토리니의 하루,서울 서대문구 통일로 481 2층,37.5908664998452,126.941569337866
111,북커스,서울 종로구 평창30길 10,37.6109243962339,126.975142725198
112,카페봉봉,서울 종로구 자하문로40길 59-3,37.5944089526365,126.966027015575
113,따미가,서울 종로구 평창길 134,37.6134133206443,126.965895823372
114,온도차,서울 은평구 녹번로 74 1층,37.6070377911399,126.93204696505
115,삐에,서울 은평구 진흥로19길 10-2,37.6117648484545,126.941134160844
116,메가커피 홍제역점,서울 서대문구 세무서길 6,37.5882529240035,126.945379523276
117,탐앤탐스 홍제역점,서울 서대문구 통일로 484,37.5916067956367,126.942941762759
118,온봄,서울 종로구 창의문로 149,37.5931481010372,126.963596644836
119,수다방,서울 서대문구 세검정로 54,37.5925358491224,126.947292236142
120,플로,서울 은평구 서오릉로 20-1,37.6030880027218,126.926293837797
121,카페블레싱,서울 종로구 평창문화로 81,37.6068901607494,126.969877091808
122,메이스테이블,서울 종로구 창의문로10길 36,37.5930404480731,126.964535602574
123,카페인중독 서대문점,서울 서대문구 세무서2길 42,37.5884929606268,126.947795874083
124,파스쿠찌 홍제역점,서울 서대문구 통일로 437,37.5878914679244,126.94484583033
125,먹고싶지롱,서울 서대문구 세검정로 47,37.5924786899343,126.946411238491
126,베어카페,서울 종로구 자하문로24길 24,37.5828548104465,126.97112557551
127,커핀그루나루 평창동점,서울 종로구 평창문화로 130,37.6090752612232,126.974557021727
128,슬로우파크,서울 종로구 삼청로 141,37.5879162386895,126.98150102853
129,슈퍼사이즈커피 홍은점,서울 서대문구 세검정로1길 67,37.5936828048346,126.945103007345
130,대오서점,서울 종로구 자하문로7길 55,37.5797361073093,126.969324927835
131,스타벅스 불광역점,서울 은평구 통일로 715 우리은행 1층,37.609413947696,126.930308376671
132,통인동커피공방,서울 종로구 자하문로 41-1,37.5797651088704,126.971067899449
133,세컨드스토리,서울 종로구 창의문로 138,37.5928042392532,126.96524645875
134,통인스윗,서울 종로구 자하문로7길 50,37.5796264444815,126.969627469792
135,카페티에르,서울 서대문구 세무서길 86,37.5915463396948,126.947202578054
136,풍류관,서울 종로구 필운대로5나길 20-12,37.5802745815836,126.967456726676
137,얼스어스 서촌점,서울 종로구 자하문로28가길 1,37.5853427511264,126.971240550399
138,달냥,서울 은평구 통일로 684 서울혁신파크 상상청 1층,37.6094070491111,126.934953878791
139,앤스나무,서울 종로구 창의문로5길 6-1,37.5922347479186,126.963832379668
140,다다,서울 종로구 평창30길 15,37.6111583873076,126.974738203986
141,마마티 부암점,서울 종로구 창의문로 133,37.5923677514777,126.965700824206
142,아이비,서울 종로구 창의문로 140-1,37.5928525601435,126.965035262379
143,헤르만의정원,서울 종로구 옥인동 39,37.5815958001525,126.968457633117
144,오디디,서울 종로구 필운대로 25-2 1층,37.5783576028524,126.969042473308
145,아로이커피 녹번점,서울 은평구 통일로 675,37.6066595928946,126.933057960005
146,154수다,서울 서대문구 세검정로1길 16,37.5922289287212,126.942751855635
147,빽다방 홍제삼거리점,서울 서대문구 통일로 426 1층,37.5873218525266,126.946195285842
148,이디야 녹번중앙점,서울 은평구 통일로 635,37.6035067396377,126.934630829335
149,카페더나인,서울 은평구 통일로 623 1동 1층,37.6024571177299,126.934851102385
150,이디야커피 홍제역점,서울 서대문구 통일로 431,37.5874620095016,126.945329377852
151,공차 녹번역점,서울 은평구 은평로 226,37.600849454025,126.93271619248
152,마운틴,서울 은평구 진흥로16길 3,37.6101297859633,126.939281446367
153,아나볼릭,서울 서대문구 세무서길 23,37.5890257972231,126.945383600685
154,레종데트르,서울 종로구 자하문로7길 67-2,37.5801858609805,126.968894768738
155,힐링앤툰,서울 은평구 진흥로 144 동호스카이 지하 102호,37.608110386275,126.925999860181
156,빽다방 은평초교점,서울 은평구 은평로 235 1층,37.6011742212805,126.933921480404
157,카페알베르게,서울 종로구 필운대로 53-30,37.5807889189073,126.967969238605
158,카페파우제,서울 서대문구 세무서1길 28,37.589161141937,126.944260655678
159,코소,서울 종로구 삼청로 135-5,37.5878547598268,126.981303244201
160,PKM가든카페,서울 종로구 삼청로7길 40 PKM갤러리 2층,37.5840916531266,126.980082350686
161,카페디,서울 종로구 평창30길 27 2층,37.612363204004,126.974804619584
162,이피더카페,서울 은평구 은평로 245 1층,37.6011049837261,126.935146145667
163,감성커피 홍제역점,"서울 서대문구 통일로 439 2,3층",37.6011049837261,126.935146145667
164,커피에반하다 녹번환희점,서울 은평구 통일로 630-1,37.6031576200927,126.937484017426
165,엔제리너스 불광역점,서울 은평구 통일로 741 신흥빌딩 1층,37.6114268242168,126.928611590744
166,더벤티 녹번역점,서울 은평구 은평로 220,37.6005343844723,126.932098856535
167,유케이라이브,서울 종로구 평창문화로 98 지하1층,37.607080321458,126.971914183814
168,큔,서울 종로구 자하문로26길 17-2 1층,37.5847099600923,126.972271640465
169,옥인23,서울 종로구 필운대로 57 1층,37.5811640194179,126.968365773703
170,사미루,서울 종로구 평창32길 30,37.6130350062216,126.977609517481
171,이이엄,"서울 종로구 필운대로9길 3 1,2층",37.6130350062216,126.977609517481
172,채식주의자,서울 종로구 자하문로13길 4-7 1층,37.5803730268393,126.970772862576
173,텍사스아메리카노,서울 서대문구 통일로27길 9 1층,37.5834234713249,126.948910626218
174,슬로우레시피,서울 종로구 자하문로10길 8,37.5793467286382,126.971986416963
175,쌍띠에,서울 서대문구 세검정로 7 1층,37.5919602988022,126.942290994496
176,할리스 은평구청점,서울 은평구 은평로 200-1 삼영빌딩 1층,37.6011336684453,126.929999928224
177,마샹스,서울 종로구 자하문로 36 1층,37.5792708106796,126.971758668084
178,118커피,서울 종로구 옥인길 22-1,37.5808124709587,126.96744256751
179,쥬씨 홍제역점,서울 서대문구 통일로37길 16,37.5876485722206,126.944104971029
180,크레페버니,서울 은평구 불광로 16-3 1층,37.6096198054099,126.928470729437
181,스카이카페,서울 종로구 평창동 산 6-91,37.6024050330082,126.98234518945
182,디저트 솜,서울 은평구 은평로21길 6,37.6015731551376,126.933556484541
183,쥬씨 녹번역점,서울 은평구 은평로 231,37.6012500514027,126.933381472213
184,빈티지204,서울 은평구 은평로 193-1 1층,37.6019671431653,126.928892189448
185,카페 라파미,서울 종로구 평창30길 25,37.612097853077,126.974759292187
186,경희븟,서울 은평구 통일로 636 116호,37.603517115574,126.935311316206
187,카페와인드,서울 은평구 응암로34가길 17,37.5995608321288,126.922949939511
188,이디야커피 무악재역점,서울 서대문구 통일로 369,37.5830991755755,126.949683881177
189,이디야커피 은평구청점,서울 은평구 은평로 197,37.6016437882797,126.92951057903
190,스노브 서촌점,서울 종로구 자하문로9길 14,37.579591968568,126.970464331308
191,154 SooDa,서울 서대문구 세검정로1길 16,37.5922289287212,126.942751855635
192,경우의수,서울 종로구 옥인길 54,37.5814561810221,126.965987390633
193,디저트39 불광점,서울 은평구 불광로 37 1층,37.6112866065774,126.929773297787
194,공음,서울 은평구 통일로68길 14 1층,37.612553944182,126.930088100956
195,마카롱삼츈,서울 은평구 은평로 220 상가 B동 118호,37.6005343844723,126.932098856535
196,한평책빵,서울 은평구 통일로 684,37.6094070491111,126.934953878791
197,다원,서울 성북구 대사관로 3,37.5972821698538,126.983526326222
198,커피오름 홍제점,서울 서대문구 통일로 412-1 1층,37.5863718302377,126.947158114482
199,인디에어,서울 은평구 불광로2길 2 2층,37.6119384749006,126.931930946199
200,스펙터,서울 종로구 필운대로6길 23-1,37.5802704862673,126.96967170006
201,아로이커피 불광역점,서울 은평구 통일로 709,37.6091066305431,126.9307851255
202,개상전애견카페,서울 은평구 통일로 727-5 3층,37.6102189534584,126.929201677938
203,커피더맨,서울 은평구 진흥로 203 1층,37.6093220797219,126.931752236127
204,어퍼스트로피,서울 종로구 필운대로 32 1층,37.5789678388449,126.969014710882
205,나쉬캇제,서울 서대문구 통일로39나길 28,37.5892707997054,126.942398596365
206,빽다방 불광역점,서울 은평구 통일로 738 1층 10호,37.611415859944,126.929406673052
207,창문카페별꼴,서울 은평구 통일로 684 1층,37.6094070491111,126.934953878791
208,카페소품이야기2호점,서울 서대문구 연희로41길 167,37.5954752012054,126.932994265204
209,디퍼,서울 종로구 자하문로7길 29 1층,37.5790257421769,126.970297798069
210,에디션덴마크,서울 종로구 자하문로9길 24 1층,37.5795647684682,126.969791422707
211,자하,서울 종로구 필운대로 44 1층,37.5799619378614,126.968795689539
212,덕인커피숍,서울 서대문구 통일로37길 3,37.587932359596,126.944624789814
213,위클 북악점,서울 종로구 북악산로 267,37.601975429062,126.980551282647
214,올바른커피,서울 서대문구 홍제내4길 4-11,37.5872273602034,126.936451629764
215,카페마차,서울 서대문구 모래내로 468,37.5859288611436,126.946666262541
216,카페봄,서울 종로구 옥인길 18 1층,37.5806661015476,126.967595466794
217,커피앤,서울 서대문구 연희로 377,37.5910066406383,126.939320310319
218,동네카페하하하,서울 서대문구 홍제내4길 6,37.5877454007435,126.936730848239
219,이디야커피 불광역점,서울 은평구 불광로 28,37.6104736517784,126.929182862406
220,크크,서울 서대문구 통일로 432-1,37.587811414967,126.945720984779
221,컴바인스,서울 서대문구 송죽길 30 1층,37.5845619636966,126.939208927901
222,여기인가,서울 종로구 자하문로7길 24-4 1층,37.5788456949278,126.97090636668
223,불광동커피공방,서울 은평구 통일로65길 15,37.6089084046728,126.929251846062
224,컴포즈커피 불광제일점,서울 은평구 불광로 28,37.6104736517784,126.929182862406
225,후후라운지,서울 종로구 옥인3길 8,37.5808197189829,126.966301163503
226,카페프렌즈,서울 서대문구 통일로37길 36 1층,37.5866737824339,126.943902808612
227,이디야커피 불광중앙점,서울 은평구 불광로 59,37.6123338073332,126.931737818222
228,카페오구오,서울 종로구 자하문로33길 10,37.5862132697459,126.96936721839
229,키즈필키즈카페 은평점,서울 은평구 은평로11길 9,37.6015763563464,126.923100965689
230,블랙버드,서울 서대문구 통일로39나길 1,37.5884720476212,126.943470644269
231,엔제리너스 동신병원점,서울 서대문구 연희로 276 103호,37.5816970350637,126.936563883149
232,쎄이썸띵,서울 종로구 자하문로10길 10-12,37.5792485301031,126.972027775175
233,타이티카페 종로통인직영점,서울 종로구 자하문로13길 4-6 1~2층,37.5803110797813,126.97094021262
234,평창동디저트,서울 종로구 평창길 345,37.6118760653158,126.978586495692
235,진저그래스맨,서울 종로구 자하문로7길 68-2 1층,37.580267283771,126.969134968421
236,스탠딩커피 궁정동점,서울 종로구 효자로 107 1층,37.58363222647,126.97128524947
237,비노안토니오,서울 서대문구 통일로39길 28,37.5879416130988,126.942867229697
238,플레이티,서울 은평구 불광로 76,37.613665814824,126.932182058182
239,공차 NC불광점,서울 은평구 불광로 20 지하 1층,37.6097357749976,126.928938477038
240,카페누마루,서울 서대문구 연희로41길 4 2층,37.58928098521,126.936438334876
241,구름속의산책,서울 종로구 북악산로 267,37.601975429062,126.980551282647
242,카페포조,서울 은평구 은평로16길 9 1층,37.6004817123975,126.930153188622
243,불광카페,서울 은평구 통일로 724-1,37.6104364214964,126.930361445993
244,까루나,서울 서대문구 홍제내길 42,37.5843914591086,126.936403206045
245,카페피우,서울 종로구 자하문로7길 21,37.5787418205779,126.970584215411
246,커피앤,서울 은평구 통일로63길 6,37.6080262354279,126.931370058911
247,더스토리,서울 은평구 은평로 204-4,37.6006038862494,126.930152394956
248,브레드베이커스미스,서울 종로구 삼청로 135-3 2층,37.5876236618385,126.981345194166
249,음악창고,서울 서대문구 통일로 402,37.5855774120522,126.947940452869
250,카페청,서울 은평구 은평로 225 1층,37.6013142538322,126.932837170153
251,커피향기,서울 서대문구 통일로35길 66,37.5876136473234,126.944558338149
252,코코블랑,서울 종로구 옥인1길 1,37.5806165402498,126.967900932743
253,알로하카카오,서울 서대문구 연희로41길 105,37.5932338455373,126.934349832698
254,박정수의 좋은하루라이브,서울 은평구 은평로 229 3층,37.6012766434765,126.933244764532
255,슬로우리,서울 서대문구 통일로 392,37.5849343149835,126.948629832086
256,커피사피엔스 녹번역점,서울 은평구 은평로 220 녹번역e편한세상캐슬아파트 상가A동 1층 102호,37.6005343844723,126.932098856535
257,착한커피공장,서울 종로구 자하문로7길 66 1층,37.5801973823904,126.969195225427
258,빈트리이백이십오 홍제점,서울 서대문구 통일로 365,37.5828332389647,126.949769876971
259,구름정원,서울 은평구 불광로18길 32 1층 101호,37.622479413794,126.934820380201
260,이디야커피 독립문역점,서울 종로구 통일로 266,37.5758473655224,126.956783269179
261,G로스팅,서울 종로구 효자로13길 40-7,37.5827608998278,126.972137524675
262,벨라지오관광호텔 벨포스토,서울 은평구 진흥로 205,37.6094477343491,126.932006605547
263,도드,서울 은평구 은평로 154 1층,37.6007981949894,126.924675150897
264,주희스커피,서울 서대문구 통일로 414,37.5864839564704,126.947052400663
265,카페통인,서울 종로구 자하문로9길 16 1층,37.5795778580225,126.970245162575
266,까페누하 191,서울 종로구 필운대로 35,37.5792744472294,126.968673823501
267,빈트리 이백이십오 불광점,서울 은평구 불광로 98,37.6155334420579,126.933073451375
268,꽃그리는아이 서대문점,"서울 서대문구 홍제동 471 상가동 B101, B102, B103호",37.6155334420579,126.933073451375
269,카페라또 불광점,서울 은평구 통일로 742 한화생명빌딩 지하1층,37.6118237104709,126.929361323827
270,음악의숲,서울 종로구 자하문로 39,37.5795696913241,126.971100692714
271,레써피,서울 종로구 자하문로14길 8-2,37.5803640595069,126.971687045391
272,K2커피숍,서울 종로구 평창36길 22,37.6128094854858,126.978072139871
273,더치스토리 광화문점,서울 종로구 자하문로 67 지하1층,37.5818470228112,126.970292941229
274,아마스빈 불광역점,서울 은평구 통일로 743 1층,37.6116740035269,126.928525617796
275,미아커피,서울 서대문구 모래내로 445,37.5851577922119,126.944326476982
276,카페디,서울 은평구 진흥로 173,37.6086214881269,126.928882910256
277,애플파이,서울 종로구 평창30길 40,37.6134222984483,126.975144951828
278,맥아더,서울 은평구 은평로13길 11,37.6023042291346,126.925287303206
279,덴고의커피,서울 종로구 자하문로 106 지하1층,37.5853766800391,126.970356412903
280,카페르뮤즈,서울 종로구 자하문로24길 52,37.5818920490211,126.971663371226
281,티하우스레몬 서촌점,서울 종로구 자하문로13길 4 1층,37.5801631211255,126.970877438157
282,그리고카페,서울 서대문구 통일로 400,37.5854570000079,126.948055566989
283,감성커피 불광역점,"서울 은평구 통일로 731 1층 35, 36호",37.6106226649216,126.929466316371
284,카페리꼬,서울 은평구 불광로 37-7 세인빌딩 7층,37.6116256000434,126.929842972724
285,프라빈커피&데일리브레드 독바위역점,서울 은평구 불광로 130 1층,37.6182582206809,126.933250992696
286,오가다 서울은평역촌점,"서울 은평구 진흥로 91-1 1, 2층",37.6051437798921,126.921931852296
287,카페솔,서울 서대문구 통일로 370,37.5833169418711,126.950099462017
288,열하나,서울 은평구 은평로 205-11,37.6016434001337,126.931607278719
289,커피가지고,서울 은평구 은평로 197-1,37.6018712349694,126.929572082208
290,님은먼곳에,서울 성북구 정릉동 산 87-1 1층,37.6077511914206,126.989515191221
291,카페나무,서울 서대문구 연희로41길 4 1층,37.58928098521,126.936438334876
292,티파니,서울 종로구 삼청로 124-4,37.5864422056404,126.982026848577
293,호천재,서울 종로구 필운대로9가길 37,37.583117607819,126.965658197398
294,이디야커피 녹번동점,서울 은평구 진흥로 156,37.6087386251395,126.926978658641
295,키즈방방,서울 은평구 은평로 173 2층,37.6016101647625,126.926818819231
296,마을,서울 서대문구 통일로39가길 57,37.5899000753645,126.940985283729
297,이디야커피 본서부병원점,서울 은평구 응암로 337,37.6013078542665,126.922128486696
298,태산커피시그니쳐,서울 은평구 응암로 347 로하스오피스텔 1층,37.602205644718,126.922194704675
299,이룸커피프로젝트,서울 은평구 불광로 76 2층,37.613665814824,126.932182058182
300,그라찌에커피 서울예전서울문예대점,서울 서대문구 통일로37길 41,37.5864507046741,126.944109716229
301,빵나무,서울 종로구 필운대로1길 19,37.5776936541061,126.968339845827
302,네이처셀카페 삼청점,서울 종로구 삼청로 138,37.5875759881264,126.981851308333
303,메종데쎄종,서울 종로구 필운대로2길 25,37.5792072347001,126.96971583013
304,봉스디,서울 은평구 통일로63길 1,37.6079016255545,126.931675389615
305,쥬씨 불광점,서울 은평구 불광로 28 1층 26호,37.6104736517784,126.929182862406
306,마리올라 본점,서울 은평구 통일로 724-1 1층,37.6104364214964,126.930361445993
307,제대로커피,서울 종로구 자하문로7길 25 1층,37.5788518143154,126.970513529867
308,카페드미유,서울 서대문구 통일로 397 인왕산 한신휴플러스,37.5851683009936,126.947398082336
309,갤러리카페3안,서울 종로구 북촌로 137-7,37.5869565462596,126.98299884081
310,아해월,서울 종로구 자하문로17길 14,37.5814547282036,126.96992923145
311,부엔까미노 위드나따오비까,서울 은평구 불광로14길 4 1층 101호,37.6191815084676,126.933013433239
312,메가커피 독바위역점,서울 은평구 불광로 130-1 1층,37.6184055935707,126.933200229839
313,이연,서울 은평구 통일로71길 24-17 1층,37.6124734218056,126.926281404616
314,효자카페,서울 종로구 필운대로 53,37.580843552968,126.968429307894
315,카프,서울 은평구 백련산로 177-11 1층,37.6003408675789,126.926269030328
316,커피생활,서울 은평구 녹번로 47,37.6057367482308,126.929715775467
317,쥬씨 역촌역점,서울 은평구 서오릉로 71 1층,37.6070075809917,126.921952781175
318,50-14,서울 은평구 불광로 50-14,37.6109985392899,126.931577873305
319,마리스케이크&카페,서울 은평구 진흥로 124 지하1층,37.6072966096234,126.924150244478
320,모노치즈 배화여대점,서울 종로구 필운대로1길 16-1,37.5777653315768,126.968520946878
321,사람인타로,서울 은평구 불광로 28 제일쇼핑프라자 38호,37.6104736517784,126.929182862406
322,서촌커피,서울 종로구 자하문로 55 효자아파트상가 1층,37.5808974648923,126.97065027554
323,cafe JiBob,서울 종로구 북촌로 137-19,37.586977894935,126.982351890712
324,키지아,서울 은평구 백련산로4길 10,37.5946569799838,126.924158546172
325,데이지카페,서울 서대문구 모래내로 380,37.5828143228787,126.937854828711
326,카페오늘,서울 은평구 통일로 714,37.6096990703849,126.931006330737
327,32ndst,서울 종로구 자하문로 77-9 1층,37.5826898253779,126.969989078046
328,작은토끼야들어와편히쉬어라,서울 종로구 필운대로 49-10 1층,37.5804614443769,126.9681047795
329,이디야커피 배화여대점,서울 종로구 필운대로1길 35,37.5777983064688,126.967517691017
330,반하다카페,서울 종로구 자하문로 35-3,37.5790436149798,126.97115806662
331,사랑채한방찻집,서울 은평구 통일로 727 2층,37.6104586151378,126.929651306142
332,몽뵈르,서울 은평구 응암로 352 태선라이프빌딩 1층,37.6025111715274,126.922744868433
333,둘레길커피호프,서울 은평구 진흥로 194,37.608444146846,126.93096241501
334,커피에반하다 은평녹번점,서울 은평구 진흥로 148 참솔빌딩 1층,37.6084438918345,126.9263669244
335,토우,서울 종로구 삼청로 146,37.5882121939749,126.98194863882
336,트루비 불광역점,서울 은평구 진흥로 184,37.6082230225338,126.929856361605
337,달공카페,서울 은평구 통일로 684,37.6094070491111,126.934953878791
338,장인커피,서울 종로구 필운대로 23 지하1층,37.5781046177005,126.969095898846
339,카페쿠모,서울 은평구 진흥로9길 3,37.6053102042008,126.921813106842
340,부엔까미노,서울 은평구 불광로14길 4 101호,37.6191815084676,126.933013433239
341,바른커피샌드위치,서울 종로구 자하문로 68,37.5821007213939,126.970931592059
342,에프엔 커피,서울 종로구 자하문로 62,37.5816027844869,126.971103642893
343,뜨거울때꽃이핀다,서울 종로구 옥인길 15 2층,37.5805153764281,126.96763606176
344,커피모닝,서울 은평구 진흥로12길 22 1층,37.6069874056566,126.926597241222
345,라베이유,서울 은평구 응암로32길 23,37.5968672147465,126.922789091017
346,커피마마 SPOANY불광역점,서울 은평구 통일로 727-3,37.6102579941558,126.929398593704
347,카페더쏠,서울 서대문구 통일로 364,37.5828309658005,126.950359953974
348,제이빈스,서울 은평구 불광로 50-14,37.6109985392899,126.931577873305
349,커피에반하다 응암서부병원점,서울 은평구 은평로10길 17,37.5994227522198,126.924127324
350,롤로도넛,서울 종로구 옥인길 11 1층,37.5804465018792,126.967824361772
351,호전다실,서울 종로구 자하문로11길 16-2,37.5798013523891,126.970435719624
352,동궁다방,서울 은평구 은평로9길 16,37.6017311304725,126.92170621382
353,착한다방,서울 은평구 불광로 20,37.6097357749976,126.928938477038
354,블루라떼,서울 은평구 불광로 64,37.6131320544168,126.932470564865
355,독바위커피,서울 은평구 불광로 132 1층,37.618604478585,126.933106491709
356,두들,서울 은평구 불광로 20 NC백화점 불광점 15층 a-05호,37.6097357749976,126.928938477038
357,데일리브라운 삼청동점,서울 종로구 삼청로7길 37,37.5837567032857,126.979784454889
358,숲,서울 은평구 은평로13길 10 신풍빌딩 1층,37.6021582311289,126.925655832128
359,은마루나눔카페,서울 은평구 은평로 195,37.6024574203071,126.928822870137
360,9기압 불광점,서울 은평구 통일로68길 4 8층,37.6121199998076,126.929284706904
361,휘카페 역촌역점,서울 은평구 진흥로 68 정안빌딩 1층,37.6030026469175,126.921629233386
362,기브앤카페,서울 은평구 은평로21길 61,37.6031454261474,126.927653407265
363,사다리커피,서울 종로구 자하문로16길 4-2,37.581402888218,126.971243764179
364,프로젝트29,서울 종로구 자하문로9길 34,37.5795358244114,126.96935591628
365,플랜비원,서울 종로구 자하문로24길 41-42,37.5825310652379,126.972559899824
366,도자공방정,서울 은평구 은평로21길 57,37.6030834969675,126.928192515632
367,정성담음,서울 은평구 녹번로 47,37.6057367482308,126.929715775467
368,부츠카페,서울 종로구 자하문로12길 11-14 1층,37.5801412698262,126.971796038471
369,학커피숍,서울 서대문구 연희로 267,37.5809534515094,126.935908564085
370,필커피,서울 은평구 불광로 112,37.6167357580646,126.932822055522
371,느슨한 위로,서울 종로구 옥인길 71,37.581742474709,126.964920000066
372,지커뮨홀,서울 종로구 자하문로 76,37.5827442683712,126.970799220327
373,갤러리판,서울 종로구 평창40길 86-4,37.6159315587794,126.979391892568
374,약속커피숍,서울 은평구 불광로 40,37.6111030540738,126.930345874402
375,소철이네커피&토스트,서울 은평구 통일로65길 26-21,37.6092713567082,126.929007664588
376,카페 세이비어,서울 은평구 진흥로12길 22 초원그린빌 1층 101호,37.6069874056566,126.926597241222
377,아루 삼청점,서울 종로구 삼청로 129,37.5869387507633,126.981495269724
378,커피브레이크 은평점,서울 은평구 백련산로 177-13,37.6003606050982,126.926134253665
379,커피벨 은평대조점,서울 은평구 통일로69길 27 1층 104호,37.61042431223,126.926008553472
380,아이안,서울 종로구 필운대로 41,37.5797102352623,126.968588280528
381,약수터,서울 종로구 자하문로 53-1,37.5807491279322,126.970879247711
382,카페 아만딘,서울 은평구 통일로71가길 1,37.6137840922125,126.926140912184
383,스몰플레닛,서울 종로구 필운대로 43 1층,37.5798914962717,126.968517108282
384,랩,서울 은평구 서오릉로 9,37.602205840053,126.926288819434
385,카페아폴로,서울 은평구 통일로71길 16,37.6134487938733,126.92607623189
386,뚠스커피,서울 은평구 은평로11길 4,37.6011211426477,126.923604570585
387,에스프레소인뉴욕,서울 은평구 불광로 20,37.6097357749976,126.928938477038
388,일이오커피(coffee)리안,서울 은평구 녹번로 5,37.6029712011174,126.926674343962
389,찜질카페,서울 은평구 은평로10길 17,37.5994227522198,126.924127324
390,가드닝카페숲,서울 종로구 북촌로 137-1,37.5872697469321,126.983107349013
391,카페드림 배화여자대학교필운관점,서울 종로구 필운대로1길 34,37.5795440101952,126.967291871532
392,달콤한디저트,서울 은평구 통일로68길 15,37.6128215984274,126.930190464158
393,카페능소니,서울 은평구 서오릉로 14,37.6027176102426,126.926445611665
394,소나무식탁,서울 종로구 자하문로17길 12-3,37.5815441050605,126.969922515944
395,콜라보마켓,서울 종로구 자하문로 53,37.5806541668855,126.970894228615
396,소쿠리카페,서울 종로구 자하문로10길 16,37.5792190544442,126.972354395109
397,오빠네밀크티,서울 종로구 옥인길 19,37.5806221664786,126.96738966742
398,아로마틱커피브루어스,서울 은평구 은평로9길 16 1층,37.6017311304725,126.92170621382
399,카페드림,서울 은평구 은평로 145 1층,37.6009653546002,126.923733373076
400,플라잉팬,서울 종로구 창성동 122-12,37.6009653546002,126.923733373076
401,옥인길26,서울 종로구 옥인길 26,37.5809424601049,126.967354771656
402,ㅌㅇ,서울 종로구 필운대로6길 10,37.5806600539883,126.969238508021
403,맹커피숍,서울 은평구 불광로 27,37.6107726490859,126.928815286058
404,압셍트,서울 종로구 효자로9길 43,37.5806845055019,126.972288416985
405,카리타스,서울 은평구 응암로 376,37.6045310386215,126.92320120609
406,카페J브라운,서울 종로구 삼청로 131 1층,37.5870912885727,126.981493533644
407,통인스윗팩토리,서울 종로구 필운대로 34 1층 101호,37.5790825283829,126.968988059212
408,크래프트카페,서울 종로구 북촌로 137,37.5872885534004,126.982938531433
409,기차나라,서울 종로구 북촌로 147,37.5869698462066,126.98215307642
