,name,address,lat,long
0,꼬기냉면 신내점,서울 중랑구 신내로 45 해성빌딩 105호,37.6031407236909,127.095551052144
1,떡갈냉면 신내점,서울 중랑구 신내로 82,37.6066828647187,127.095563510586
2,삼대냉면,서울 중랑구 용마산로115길 45,37.5985052775039,127.097788831685
3,본가삼대냉면 우림시장점,서울 중랑구 망우로66길 75,37.5962619413431,127.099571726655
4,차고집냉면 중랑점,서울 중랑구 상봉중앙로1길 12 1층,37.5996244278284,127.087415682008
5,개성냉면 본점,서울 중랑구 용마산로 453 1층,37.5917637933199,127.097785784832
6,향촌칡냉면,서울 중랑구 용마산로 452,37.5914111768444,127.098181733835
7,고기품은냉면,서울 중랑구 봉화산로21길 11,37.6021720886573,127.081859284986
8,미락칡냉면,서울 중랑구 상봉로 67,37.5918534700302,127.093184751894
9,먹골골목냉면,서울 중랑구 공릉로 56-8,37.6153529471433,127.079194470771
10,MR.신냉면 중랑점,서울 중랑구 동일로143길 29,37.6050489771069,127.076861160036
11,육쌈냉면 중화점,서울 중랑구 중랑역로 66-1,37.5992235312624,127.078372804216
12,삼대신냉면평양만두,서울 중랑구 겸재로 193,37.5889344603064,127.089068816711
13,장모님냉면,서울 중랑구 중랑역로 197,37.6110140415644,127.075786708855
14,쪼매매운냉면,서울 중랑구 동일로157길 20,37.6099096725314,127.076665132826
15,본가냉면돈까스,서울 중랑구 용마산로96길 13 1층,37.5903892840154,127.098275388216
16,강씨네 아천칡냉면 면목1호점,서울 중랑구 겸재로35길 13 1층,37.5887294414349,127.085843735016
17,대청면옥,서울 노원구 화랑로51길 38,37.6249572724348,127.089080516412
18,삼대냉면짬뽕,서울 중랑구 봉화산로 39,37.6017428102762,127.078614617042
19,고냉고떡 중화점,서울 중랑구 동일로123길 87 1층,37.5989125024142,127.075480350448
20,왕냉면,서울 중랑구 상봉로11길 31,37.5898473306076,127.091793201624
21,해주옥,서울 중랑구 공릉로 70 1층,37.6168154085734,127.079629605151
22,동부면옥,서울 중랑구 동일로109길 81,37.5908934084287,127.075761885746
23,불갈비냉면 &낙지볶음,서울 중랑구 중랑역로 190,37.6103772862219,127.076247356509
24,할머니냉면,서울 중랑구 면목로49길 24,37.5828218815307,127.087224058416
25,딸만셋냉면 공릉점,서울 노원구 공릉로38길 5,37.6233497402709,127.079748604844
26,냉면마을 본점,서울 중랑구 면목로44다길 64,37.5838111289129,127.091331339482
27,박사칡냉면,서울 중랑구 면목로55길 6,37.5843863278246,127.088003685345
28,박사칡냉면,서울 중랑구 면목로55길 6,37.5843863278246,127.088003685345
29,두리냉면,서울 중랑구 면목로43길 25,37.5813527352518,127.086471066095
30,설악칡냉면수타돈까스,서울 노원구 동일로173가길 72,37.6214849816517,127.072900597215
31,개성칡냉면,경기 구리시 아차산로506번길 26,37.5999812865835,127.132104174559
,name,address,lat,long
0,신선한우촌,서울 중랑구 용마산로 707,37.6142750600356,127.10116940797
1,착한낙지 신내점,서울 중랑구 용마산로125길 108-19,37.6039620645201,127.101803098028
2,기와옥,서울 중랑구 용마산로129길 22 광남아파트 1층,37.6075165021967,127.099865441235
3,곤드레킹 신내점,서울 중랑구 용마산로129길 10 2층,37.607629498026,127.10027658502
4,한동길감자탕 신내본점,서울 중랑구 신내로 225,37.6169671050345,127.091360778797
5,다함갈비탕 신내직영점,서울 중랑구 용마산로 623 1층,37.6067294197018,127.100476623662
6,한도니 신내점,서울 중랑구 봉화산로54길 32 1층,37.6063804168822,127.097746252394
7,장수돼지갈비,서울 중랑구 신내로14길 21,37.6061237684817,127.097147956287
8,유정역,서울 중랑구 신내로 193 1층,37.6154746292954,127.094437021597
9,노고단칼국수,서울 중랑구 봉화산로56길 1,37.607961836905,127.100106812176
10,왕대박대게파티 신내동본점,서울 중랑구 봉화산로 234,37.6078537920486,127.098735743775
11,동창야채&숯불닭갈비 본점,서울 중랑구 봉화산로56길 25,37.6071407314722,127.099400720569
12,추오정남원추어탕,서울 중랑구 용마산로125길 108-7,37.6043046294828,127.101479224626
13,장어세상,서울 중랑구 용마산로129길 4,37.6077748079736,127.100617217268
14,이종구낙지세상 신내점,서울 중랑구 봉화산로52길 59,37.605331243972,127.096506163606
15,태능가든,서울 중랑구 신내로14길 13,37.6058331727345,127.096079861027
16,본가왕해물찜 중랑점,서울 중랑구 용마산로129길 60,37.6070806885986,127.097500959994
17,벌교계절맛집,서울 중랑구 신내역로1가길 5,37.6136025635772,127.105791713424
18,이차돌 신내점,서울 중랑구 신내로14길 21 1층 108~110호,37.6061237684817,127.097147956287
19,두미가,서울 중랑구 신내로10길 29 1층,37.6045191417288,127.097213818061
20,장고기,"서울 중랑구 신내로 225 디아뜨갤러리 101,102호",37.6169671050345,127.091360778797
21,명륜진사갈비 서울신내점,서울 중랑구 봉화산로 221 동성타워프라자,37.6080276018454,127.097205473343
22,중화호반닭갈비막국수 신내점,서울 중랑구 봉화산로52길 59 1층,37.605331243972,127.096506163606
23,오늘손칼국수&찜 신내점,서울 중랑구 봉화산로52길 58 2층,37.6054254721386,127.096304362386
24,불타는불막창 중랑점,서울 중랑구 신내로10길 15 1층,37.6046683742678,127.096410065814
25,골짝마을 닭한마리,서울 중랑구 신내로 45,37.6031407236909,127.095551052144
26,어부안가코다리 서울신내점,서울 중랑구 봉화산로56길 64,37.6059811783344,127.097867133793
27,부자수산,서울 중랑구 신내로14길 21 701동 1층 101호,37.6061237684817,127.097147956287
28,해바라기정육식당 신내점,서울 중랑구 봉화산로56길 77,37.6052451296632,127.098012147067
29,도가순대국,서울 중랑구 봉화산로 189,37.606714131825,127.093989362409
30,시골가마솥삼겹살 신내점,서울 중랑구 신내로 211 금강리빙스텔 213호,37.6163496295774,127.092668240549
31,아라수산,"서울 중랑구 신내로 211 금강리빙스텔 211,122,123호",37.6163496295774,127.092668240549
32,토평한우소곱창 신내점,서울 중랑구 신내로 211 1층,37.6163496295774,127.092668240549
33,왕십리할매곱창,서울 중랑구 용마산로125가길 43,37.604905623618,127.09824465317
34,엉터리생고기두번째이야기 신내점,서울 중랑구 신내로14길 9 2층,37.6057088098256,127.095890687782
35,보리곳간,서울 중랑구 용마산로 713,37.6148373880161,127.101354675661
36,곱창박사,서울 중랑구 신내로 225 디아뜨갤러리 165호,37.6169671050345,127.091360778797
37,진미파전전문,서울 중랑구 신내로 10,37.6001512159947,127.097232821033
38,배밭골,서울 중랑구 봉화산로56길 82,37.6051648894544,127.097640246643
39,갈비공장 신내점,서울 중랑구 신내로14길 22 삼영빌딜 1층,37.6055553458152,127.096694899779
40,시인과농부 봉화산역점,"서울 중랑구 신내로 225 디아뜨갤러리 103호, 104호",37.6169671050345,127.091360778797
41,봉평메밀 신내점,서울 중랑구 신내로 225 디아뜨갤러리 1층 152호,37.6169671050345,127.091360778797
42,참맛깔곱창,서울 중랑구 신내로 126 동성아파트상가,37.610185758581,127.096415262131
43,공릉닭한마리 신내점,서울 중랑구 봉화산로 236,37.6078470886249,127.098886474208
44,회를품은달,서울 중랑구 신내로 61,37.6044815882815,127.095202492486
45,신내황소곱창,서울 중랑구 봉화산로56길 46,37.6064614756701,127.0982168013
46,소정담만두전골전문점,서울 중랑구 신내로 225,37.6169671050345,127.091360778797
47,참이쁜돼지,서울 중랑구 봉화산로56길 74,37.605535803994,127.097776743704
48,참숯골,서울 중랑구 봉화산로56길 76-4,37.6054559260436,127.097619789232
49,원할머니보쌈족발 신내점,서울 중랑구 봉화산로56길 25,37.6071407314722,127.099400720569
50,소정담만두전골전문점,서울 중랑구 신내로 225,37.6169671050345,127.091360778797
51,매우당 면목점,서울 중랑구 신내로 45 해성빌딩 105호,37.6031407236909,127.095551052144
52,마석감자탕 신내점,서울 중랑구 신내로10길 29,37.6045191417288,127.097213818061
53,풍천장어,서울 중랑구 신내로 211,37.6163496295774,127.092668240549
54,장수칼국수,서울 중랑구 봉화산로52길 13,37.6069234695591,127.097278216042
55,감악산 직영생소금구이,서울 중랑구 봉화산로56길 80,37.605285934446,127.097698274986
56,가장맛있는족발 봉화산점,서울 중랑구 신내로 211 금강리빙스텔 1층,37.6163496295774,127.092668240549
57,감악산 직영생소금구이,서울 중랑구 봉화산로56길 80,37.605285934446,127.097698274986
58,야채곱창 본점,서울 중랑구 봉화산로54길 6,37.6076131458762,127.097969273807
59,도야족발 신내점,서울 중랑구 봉화산로56길 106 신한빌딩 103호,37.6042277898809,127.097288861534
,name,address,lat,long
,name,address,lat,long
0,맥도날드 신내점,서울 중랑구 봉화산로 194 신아타운1층,37.6064526315197,127.094707041869
1,홍루이젠 봉화산점,서울 중랑구 신내로 225 디아뜨갤러리 142-1호,37.6169671050345,127.091360778797
2,명랑핫도그 중랑구청점,서울 중랑구 신내로 82 금강프라자 신내14차 104호,37.6066828647187,127.095563510586
3,어게인프레쉬,서울 중랑구 신내로 51 성원아파트 단지내 상가동 126호,37.6059761741832,127.09472455776
4,롯데리아 홈플러스신내점,서울 중랑구 신내로 201,37.6158126968346,127.093737926072
5,에그셀런트 신내점,서울 중랑구 봉화산로 217,37.6077684396848,127.096812829256
6,모아샌드,서울 중랑구 신내로17길 13 신내8단지 두산화성아파트 상가동 1층 102호,37.6146143379651,127.095144619774
7,블랙캡피자 중화신내점,서울 중랑구 용마산로125가길 47,37.6048871404083,127.098043500102
8,바른생활샌드위치 망우점,서울 중랑구 망우로73길 37,37.6022277931333,127.103204509108
9,KFC 망우동점,서울 중랑구 망우로 410,37.5989760103786,127.097613134309
10,버거킹 망우점,서울 중랑구 망우로 400,37.5987572807336,127.096589961709
11,써브웨이 망우점,서울 중랑구 용마산로115길 127 한일써너스빌리젠시1단지,37.5975232054583,127.093668889688
12,맥도날드 상봉이마트점,서울 중랑구 상봉로 118,37.596467652374,127.09360845762
13,롯데리아 망우점,서울 중랑구 봉우재로 239,37.5957427567866,127.099397673109
14,롯데리아 홈플러스상봉점,서울 중랑구 망우로 353 1층,37.5983328190955,127.091624142481
15,샐러디 상봉역점,서울 중랑구 망우로 316 1층,37.5965223858128,127.087565034141
16,데일리파크,서울 중랑구 신내로15길 196,37.6157078616962,127.087466334097
17,맘스터치 상봉역점,서울 중랑구 망우로 305,37.5969077925529,127.086146411099
18,버거킹 먹골역점,서울 중랑구 동일로 890,37.6099151597192,127.078189221962
19,에그드랍 면목역점,서울 중랑구 겸재로 205 1층,37.5892378294679,127.090366051267
20,롯데리아 상봉역점,서울 중랑구 망우로 282-1,37.5956832308375,127.083929684783
21,맘스터치 중화역점,서울 중랑구 동일로 812,37.6030167457467,127.079518183342
22,롯데리아 중화역점,서울 중랑구 동일로 802,37.6020848093367,127.079714349109
23,맘스터치 서일대점,서울 중랑구 용마산로 408,37.5877899824019,127.096233290507
24,KFC 먹골역점,서울 중랑구 공릉로 8 1층,37.6115670192576,127.078073728968
25,롯데리아 면목중앙점,서울 중랑구 면목로 415,37.5890238707536,127.087094067732
26,홍루이젠 먹골역점,서울 중랑구 공릉로 19 1층,37.6125502137933,127.077746869667
27,써브웨이 묵동점,서울 중랑구 동일로 952 101-1호,37.6125502137933,127.077746869667
28,명랑핫도그 중화점,서울 중랑구 동일로 805-1 1층,37.6023851358191,127.079005080165
29,명랑핫도그 면목역점,서울 중랑구 겸재로 186 1층,37.5884136849361,127.088351946056
30,피자랩,서울 중랑구 봉우재로26길 32,37.5909355774683,127.084767781287
31,샌드리아 묵동1점,서울 중랑구 공릉로2길 7,37.612235427568,127.07826300452
32,맥도날드 중랑점,서울 중랑구 망우로 202 동성빌딩,37.5934850257791,127.075473622773
33,버거킹 화랑대역점,서울 노원구 노원로 3,37.6219930235553,127.086663107619
34,써브웨이 중랑역점,서울 중랑구 망우로 203,37.5939956436071,127.075008982696
35,스테프핫도그 서일대점,서울 중랑구 용마산로90길 19,37.587631566731,127.097248574928
36,맘스터치 중랑역점,서울 중랑구 망우로 211 1층,37.5942606832902,127.076184371325
37,버거킹 면목역점,서울 중랑구 겸재로 180 1층,37.5882008093275,127.087951338267
38,청춘감성쌀핫도그 면목점,서울 중랑구 겸재로49길 9 1층,37.5895382150349,127.09025511434
39,카페토스피아 먹골역점,서울 중랑구 공릉로2길 19,37.612176222867,127.079088489098
40,밀가루집,서울 중랑구 용마산로90길 15,37.5877251949126,127.09701126985
41,아리랑수제핫도그 중랑점,서울 중랑구 망우로 214 1층,37.5937481809153,127.076630319913
42,롯데리아 중랑역점,서울 중랑구 망우로 192,37.5931925050475,127.074144907488
43,피자스톰,서울 중랑구 중랑천로10길 93,37.5928838513321,127.078018312822
44,그릴몬스터,서울 중랑구 겸재로 125,37.5872488263764,127.081673673389
45,롯데리아 사가정역점,서울 중랑구 면목로 333,37.5817918568494,127.088447257379
46,퀴즈노스서브 서울여대점,서울 노원구 화랑로 621 학생누리관,37.6287826577056,127.088991508939
47,KFC 사가정점,서울 중랑구 사가정로 389 1층,37.5809425247312,127.088039708675
48,홍루이젠 공릉점,서울 노원구 공릉로 181 1층,37.6259503078969,127.079408257609
49,데이비스피자,경기 구리시 인창2로 5-1,37.6024348217943,127.129949734491
50,범피버거,서울 노원구 공릉로41길 12,37.6246193226328,127.078942174885
51,비엔나핫도그 사가정점,서울 중랑구 면목로48길 17 1층,37.5822704703452,127.089633965782
52,쌀똑핫도그,경기 구리시 동구릉로85번길 25,37.6087942558955,127.133039723057
,name,address,lat,long
,name,address,lat,long
,name,address,lat,long
,name,address,lat,long
0,현대자동차블루핸즈 신내점,서울 중랑구 봉화산로 226,37.6076964003088,127.097857036589
1,현대자동차 신내지점,"서울 중랑구 용마산로 623 1,2층",37.6076964003088,127.097857036589
2,마스타자동차 중랑신내3호점,서울 중랑구 용마산로117길 38,37.600204801627,127.098240170159
3,구구자동차공업사,서울 중랑구 용마산로129길 39,37.6071737156291,127.098747302492
4,신내묵동자동차공업사,서울 중랑구 신내로18길 84-2,37.6141650213208,127.10067543552
5,믿음자동차공업사,서울 중랑구 봉화산로 239,37.6082652046757,127.099247852757
6,하이카프라자 신내자동차정비센타,서울 중랑구 봉화산로56길 13,37.6077380199422,127.099907414321
7,금식자동차공업사,서울 중랑구 망우로71길 60,37.6029866717452,127.102302199781
8,대원자동차공업사,서울 중랑구 용마산로118길 71,37.6012215011402,127.10450835339
9,현대자동차공업사,서울 중랑구 신내로7가길 55,37.6022491869196,127.092736133736
10,르노삼성자동차 지정정비코너 망우점,서울 중랑구 용마산로 510 1층,37.5963755131306,127.100473230761
11,천우자동차유리,서울 중랑구 용마산로 526,37.5979224679096,127.100527966339
12,대원3급 자동차공업사,서울 중랑구 용마산로118길 90,37.6011707519452,127.105547169422
13,광덕상사,서울 중랑구 용마산로 529,37.5982631917,127.100034140297
14,현대자동차 신중랑대리점,서울 중랑구 망우로 332,37.597006738619,127.089275468943
15,행운자동차외형복원,서울 중랑구 용마산로 512-1,37.5967389540696,127.100495347484
16,카포스 제일자동차공업사,서울 중랑구 봉우재로 216,37.5947544698625,127.096893120658
17,신아주자동차공업사,서울 중랑구 상봉로 117,37.5966105389259,127.092593932094
18,카페리자동차공업사,서울 중랑구 봉우재로 204,37.5944822844918,127.095673141489
19,대진자동차공업사 중랑제3호점,서울 중랑구 봉화산로 89,37.6022098499689,127.084277541492
20,마스타자동차 중랑망우1호점,서울 중랑구 용마산로 471,37.5932659534884,127.098619768501
21,마스타자동차 중랑망우1호점,서울 중랑구 용마산로 471,37.5932659534884,127.098619768501
22,민호자동차공업사,서울 중랑구 상봉중앙로5다길 59,37.5977519756556,127.086577912837
23,신일자동차공업사,서울 중랑구 봉우재로 167,37.594009912996,127.091560641016
24,현대자동차블루핸즈 중화점,서울 중랑구 동일로 828,37.6044511838272,127.079292195934
25,범용자동차써비스,서울 중랑구 봉화산로 75-1,37.6018943971688,127.082900935555
26,현대자동차 중랑지점,"서울 중랑구 망우로 244 덕화빌딩 1,3층",37.5946015075124,127.079761963146
27,르노삼성자동차 중랑대리점,서울 중랑구 망우로 263 1층,37.5957452251909,127.081868436641
28,기아 동일로대리점,서울 중랑구 봉우재로 73,37.5917927498379,127.081355371875
29,현대자동차유리,서울 중랑구 봉우재로 160-6,37.5932463107043,127.090642311641
30,르노삼성자동차 묵동지점,서울 중랑구 동일로 893,37.610148240379,127.077514232696
31,르노삼성자동차서비스 대원자동차공업사,서울 중랑구 중랑역로 7,37.5946175297851,127.076379834935
32,쌍용자동차 구리서비스프라자,경기 구리시 경춘로 67,37.6013950962016,127.122694607985
33,ASCC 자동차피부과 중랑점,서울 중랑구 봉우재로 148-1,37.5931584041662,127.089421468009
34,쌍용자동차 중랑전시장,서울 중랑구 동일로 946 묵동신도주상복합아파트,37.6150265366805,127.07698944928
35,르노삼성자동차 지정정비코너 묵동점,서울 중랑구 중랑천로 346 1층,37.6153881796977,127.073910623862
36,행복현대자동차,서울 중랑구 상봉로 60,37.5912085626964,127.09372517502
37,한국비주얼 강북자동차번호판 제작소,서울 중랑구 망우로 259 1~2층,37.5912085626964,127.09372517502
38,기아오토큐 대일차사랑자동차,서울 중랑구 중랑천로14길 24,37.5941360967193,127.073884391217
39,현대자동차 공릉지점,"서울 노원구 화랑로 429 6,7호",37.5941360967193,127.073884391217
40,마스타자동차 구리교문2호점,경기 구리시 딸기원로 11,37.6018298071888,127.118298529031
41,영진자동차공업사,서울 중랑구 봉화산로 41,37.6018194795649,127.078892144392
42,기아 공릉대리점,서울 노원구 공릉로 172,37.6252765854844,127.080022646504
43,중랑 공업사자동차검사소,서울 중랑구 망우로 189,37.5935683336254,127.073817589734
44,기아 좋은차대리점,서울 중랑구 용마산로 341,37.5823515378099,127.093153434495
45,성수자동차공업사,서울 중랑구 겸재로 250,37.5898861348371,127.095240850888
46,달구지자동차용품,서울 중랑구 용마산로93길 41,37.5891358556303,127.094484801943
47,레디카서비스 중랑중화1호점 유성자동차공업사,서울 중랑구 중랑역로 88,37.6012731199429,127.078077805323
48,르노삼성자동차 부품대리점 만능상사,서울 중랑구 중랑천로 266,37.608476557704,127.073263108173
49,카포스 문화자동차서비스,서울 중랑구 용마산로 436,37.5901553661078,127.097430529026
50,로얄자동차외형복원,서울 중랑구 용마산로 403,37.5876641762042,127.095379320847
51,행복드림자동차써비스,서울 중랑구 상봉로 60,37.5912085626964,127.09372517502
52,강릉자동차공업사,서울 중랑구 상봉로 48,37.5903396134933,127.093766205467
53,장일 자동차공업사,서울 중랑구 중랑천로 234,37.6054589281554,127.073897740702
54,티엠 자동차정비공업사,서울 중랑구 망우로36길 41,37.5934986650248,127.079537721134
55,쌍용자동차 중랑서비스프라자,서울 중랑구 봉우재로 15,37.5898464400129,127.074939487434
56,유성자동차공업사 중랑중화1호점,서울 중랑구 중랑역로 90,37.601396430903,127.07799390796
57,송주팔의자동차세상,서울 중랑구 동일로 699,37.5928023858951,127.079927170245
58,KB매직카 서울묵동점,서울 중랑구 중랑역로 189,37.6103088468751,127.07591227417
59,하나자동차공업사,서울 중랑구 중랑천로 212-1,37.6037184617933,127.07436644464
,name,address,lat,long
0,스시혼 신내점,서울 중랑구 신내로 50,37.6035175568825,127.095946989512
1,돈까스클럽 신내점,서울 중랑구 봉화산로 250,37.6081552494102,127.100565859819
2,정담초밥,서울 중랑구 신내로 225,37.6169671050345,127.091360778797
3,모밀엔카츠,서울 중랑구 신내로 51 성원아파트 상가 107호,37.6059761741832,127.09472455776
4,정담초밥,서울 중랑구 신내로 225,37.6169671050345,127.091360778797
5,연호초밥,서울 중랑구 신내로14길 21,37.6061237684817,127.097147956287
6,미소정돈까스,서울 중랑구 신내로17길 83 신내6단지아파트 상가동 1층 111호,37.6161503233743,127.091639657907
7,대교참치,서울 중랑구 용마산로129나길 3,37.6072981155639,127.099849860259
8,요타스시,서울 중랑구 신내로12길 22 1층,37.6049116024772,127.096347526966
9,돈카츠요,서울 중랑구 신내로17길 13 신내8단지상가 1층,37.6146143379651,127.095144619774
10,혜화동돈까스극장 신내점,서울 중랑구 봉화산로56길 86 A동 101호,37.6050447451393,127.09758255941
11,미소야 신내점,서울 중랑구 봉화산로 217 1층 102호,37.6077684396848,127.096812829256
12,셰프의돈까스 신내점,서울 중랑구 신내로7길 16 104호,37.6022812705187,127.095771798348
13,수유리우동집 봉화산역점,서울 중랑구 신내로 211 금강리빙스텔 106호,37.6163496295774,127.092668240549
14,미소야 봉화산역점,서울 중랑구 신내로 211 금강리빙스텔 112호,37.6163496295774,127.092668240549
15,한돌참치 신내점,서울 중랑구 봉화산로52길 59,37.605331243972,127.096506163606
16,남태평양피지참치,서울 중랑구 봉화산로 194,37.6064526315197,127.094707041869
17,만나돈까스,서울 중랑구 신내로7길 16,37.6022812705187,127.095771798348
18,제일수산,서울 중랑구 봉화산로56길 94,37.6046368918457,127.097334353703
19,시타마치라멘 상봉R&D센타점,서울 중랑구 신내로7다길 60-9 신광빌딩 1층,37.6020582389181,127.092312364557
20,회슐랭,서울 중랑구 용마산로118길 45 1층,37.6011475505588,127.103153416658
21,거기가여기야돈까스,서울 중랑구 송림길 5 A동 1층 104호,37.5993659587079,127.095186801431
22,우동,서울 중랑구 신내로 6 1층,37.5997336963458,127.097342913517
23,쿠스시,서울 중랑구 망우로55길 25 1층,37.5990927918178,127.09347902982
24,돈까스참잘하는집,서울 중랑구 용마산로113길 28 1층,37.5981828054172,127.098015112153
25,강남즉석우동집,서울 중랑구 망우로 379,37.5988198025485,127.094483684251
26,스시화,서울 중랑구 망우로68길 82,37.5961821007714,127.100860121097
27,가츠몽 망우점,서울 중랑구 양원역로 20,37.6021668427302,127.108182859607
28,최가네우동,서울 중랑구 봉우재로57길 62 1층,37.5973958717184,127.094826916301
29,스시기리,서울 중랑구 봉우재로71길 18,37.596385964949,127.098764864011
30,모꼬지다이닝,서울 중랑구 용마산로115길 109 한일써너스빌리젠시2단지아파트 S2006호,37.5974663223384,127.094160266661
31,역전우동0410 망우역점,서울 중랑구 용마산로115길 127 한일써너스빌리젠시1단지 S1001호,37.5975232054583,127.093668889688
32,김철돈까스,서울 중랑구 상봉중앙로1다길 63 1층,37.6001160518906,127.090818355086
33,왕돈까스,서울 중랑구 용마산로115길 127,37.5975232054583,127.093668889688
34,가츠라 홈플러스 서울상봉점,서울 중랑구 망우로 353 지하1층,37.5983328190955,127.091624142481
35,최고당돈가스 망우역점,서울 중랑구 망우로60길 37,37.5971024399369,127.094238280931
36,참치한마리,서울 중랑구 용마공원로 1 2층,37.5952933562127,127.100445618784
37,쉐프의품격,서울 중랑구 상봉중앙로1길 82,37.5999380612864,127.087781703118
38,오아저씨수제돈까스,서울 중랑구 망우로 346 한일써너스빌 101동 1층 103호,37.5974524780309,127.091369638781
39,오미야끼,서울 중랑구 망우로55길 24,37.5988681171896,127.093324177419
40,참치라이더,서울 중랑구 상봉중앙로6길 10,37.6006925224129,127.088061617399
41,삼거리광우수산,서울 중랑구 봉화산로 118,37.6028830358527,127.087420853751
42,어도,서울 중랑구 망우로 326,37.5968026865946,127.088648011339
43,한승원참치,서울 중랑구 망우로 315,37.5971727071372,127.087462411312
44,사조참치 상봉점,서울 중랑구 망우로50길 15,37.5964239644782,127.089173653509
45,해저랜드,서울 중랑구 망우동 69-1,37.5964239644782,127.089173653509
46,코소코소 상봉역점,서울 중랑구 망우로 316 이지팰리스 1층 104호,37.5965223858128,127.087565034141
47,오이시,서울 중랑구 상봉로25길 32 1층,37.5949731864553,127.091181018149
48,수유리우동집 상봉점,서울 중랑구 망우로 316 이지팰리스 102호,37.5965223858128,127.087565034141
49,나스방,서울 중랑구 봉우재로33길 62,37.5949026870373,127.08899304315
50,홍길동회수산,서울 중랑구 봉우재로33길 47,37.5946129595778,127.088231208808
51,예가참치,서울 중랑구 면목로 483,37.5950176308295,127.085613055015
52,김시우초밥,서울 중랑구 봉화산로 52 1층,37.6014254812752,127.080221653459
53,한참치 묵동본점,서울 중랑구 공릉로 32 공감대아파트 상가 1층,37.6136313827671,127.078318153395
54,최민석마구로 묵동본점,서울 중랑구 동일로 939 2층,37.6141731878979,127.076470054806
55,진퉁돈까스라멘,서울 중랑구 면목로 485,37.595210898234,127.085606482423
56,스시춘,서울 중랑구 면목로90길 9 동일캐슬1층,37.5945655252538,127.086584864897
57,모참치,서울 중랑구 동일로 810 2층,37.6028392360854,127.079539850702
58,가나점보돈까스,서울 중랑구 용마산로94가길 24,37.5881739740137,127.096798087562
59,갬성식당,서울 중랑구 공릉로2가길 6 1층,37.6124492605905,127.078762024139
,name,address,lat,long
,name,address,lat,long
0,주주(JuJu),서울 중랑구 봉화산로 194,37.6064526315197,127.094707041869
1,디오니스 봉화산역점,서울 중랑구 신내로 225 108호,37.6169671050345,127.091360778797
2,술,서울 중랑구 신내로 225,37.6169671050345,127.091360778797
3,차차차노래장,서울 중랑구 망우로 445,37.6003327570213,127.101418341411
4,일번지차차차,서울 중랑구 망우로 426,37.5993807266331,127.099458226611
5,7080성관장라이브,서울 중랑구 용마산로115길 4,37.5992204422479,127.099989220141
6,준노래짱,서울 중랑구 용마산로115길 10,37.5991590230574,127.099742728815
7,투세항,서울 중랑구 용마산로115길 18,37.599033954457,127.099221434588
8,준코뮤직타운 상봉점,서울 중랑구 망우로 328,37.5967896562752,127.088961999058
9,준노래짱,서울 중랑구 용마산로115길 10,37.5991590230574,127.099742728815
10,뮤직타운,서울 중랑구 용마산로115길 68,37.5984766840271,127.096514295402
11,빅쇼룸노래주점,서울 중랑구 망우로 379,37.5988198025485,127.094483684251
12,7080불놀이야,서울 중랑구 용마산로115길 92,37.5982177560005,127.095273890863
13,7080꿈의대화,서울 중랑구 용마산로 512-1,37.5967389540696,127.100495347484
14,리치트리,서울 중랑구 용마산로115길 109,37.5974663223384,127.094160266661
15,쿨노래주점,서울 중랑구 망우로 379,37.5988198025485,127.094483684251
16,라스베가스,서울 중랑구 용마산로115길 85,37.598063619546,127.09569086251
17,팰리스노래바,서울 중랑구 망우로 374,37.5981401791991,127.093700124131
18,앵콜단란주점,서울 중랑구 용마산로115길 85,37.598063619546,127.09569086251
19,7080놀아,서울 중랑구 망우로 384,37.598456280684,127.094898130177
20,꿈의대화,서울 중랑구 용마산로115길 106,37.5981631078557,127.094436879226
21,꿈의대화,서울 중랑구 용마산로115길 106,37.5981631078557,127.094436879226
22,에이스노래랑,서울 중랑구 상봉로26길 8,37.5953144853679,127.093593877964
23,알라딘룸클럽,서울 중랑구 망우로50길 15,37.5964239644782,127.089173653509
24,보물섬섹시크럽,서울 중랑구 망우로52길 16,37.5965199575634,127.089481202448
25,미주룸비지니스,서울 중랑구 망우로50길 15,37.5964239644782,127.089173653509
26,토마토,서울 중랑구 망우로50길 18,37.5963463207715,127.088786296338
27,신천지노래크럽,서울 중랑구 망우로50길 23,37.5961080887941,127.089277226173
28,무랑루즈,서울 중랑구 망우로50길 15 5층,37.5964239644782,127.089173653509
29,알라딘룸클럽,서울 중랑구 망우로50길 15,37.5964239644782,127.089173653509
30,와와노래타운,서울 중랑구 봉우재로33길 79,37.5956354504664,127.089486597633
31,별들의행진라이브7080,서울 중랑구 상봉로 89 지하1층,37.5938046161143,127.093008732116
32,명인노래장,서울 중랑구 봉우재로33길 85,37.595851483177,127.089638250848
33,호박단란주점,서울 중랑구 봉우재로 173,37.5940800772595,127.092053511782
34,꽃길노래장,서울 중랑구 봉우재로33길 74,37.5952755295991,127.08945344211
35,MBC노래장,서울 중랑구 망우로50길 33,37.5957275482513,127.089464853703
36,추억의7080라이브,서울 중랑구 봉우재로43길 10,37.5940682588095,127.090324221417
37,썬맥주노래광장,서울 중랑구 봉우재로 148-1,37.5931584041662,127.089421468009
38,봉화호프,서울 중랑구 겸재로 265,37.5906783835858,127.097003100886
39,개구쟁이7080라이브,서울 중랑구 동일로 856,37.6068408755957,127.078758941388
40,씽7080,서울 중랑구 봉우재로 139,37.5932866855059,127.088371181212
41,엠파이어응답하라7080,서울 중랑구 동일로 855,37.6068385102119,127.078115445863
42,노을,서울 중랑구 중랑역로 99,37.6022831748177,127.077463038719
43,썸7080라이브,서울 중랑구 동일로 920,37.6125963555877,127.077592997525
44,월드컵,서울 중랑구 상봉로 51,37.5905080801592,127.093335250732
45,두레박7080,서울 중랑구 중랑역로 94,37.6019270050793,127.077886314118
46,댄스매니아,서울 중랑구 면목로 419 지하1층,37.5893716462554,127.086982040873
47,골뱅이호프,서울 중랑구 겸재로 263,37.590663791828,127.096778327105
48,워싱턴,서울 중랑구 면목로 454,37.5923674937944,127.086792698173
49,킹스,서울 중랑구 겸재로 250-1,37.5899300149911,127.095350169421
50,워싱턴,서울 중랑구 중랑역로 83,37.6008593670364,127.077695633861
51,새로와스텐드바,서울 중랑구 동일로 923,37.6128402687505,127.076880957233
52,사바나라이브클럽,서울 중랑구 중랑역로 118,37.6039732373615,127.077485515331
53,럭셔리7080라이브,서울 중랑구 봉우재로 91,37.5922164725324,127.083184820924
54,오디션노래타운,서울 중랑구 동일로163길 18,37.6120654590909,127.076262897637
55,바덴바덴,서울 중랑구 겸재로 218,37.5891419690088,127.091876687482
56,너랑나랑7080,서울 중랑구 중랑역로 274 지하,37.6162061526613,127.078565846811
57,유토피아,서울 중랑구 동일로 869,37.6080530674995,127.077943665484
58,7080고래사냥라이브,서울 중랑구 망우로 221,37.59450780416,127.077325213834
59,SBS노래바,서울 중랑구 동일로163길 12,37.6121209309015,127.076586082669
